UMBRA-09                
1 60541U 24149CB  26204.50642094  .00016444  00000+0  78713-3 0  9997
2 60541  97.6968 292.3595 0002155 184.1579 175.9637 15.19041217106237
