[
  {
    "OBJECT_NAME": "UMBRA-09",
    "OBJECT_ID": "2024-149CB",
    "EPOCH": "2026-07-23T12:09:14.769216",
    "MEAN_MOTION": 15.19041217,
    "ECCENTRICITY": 0.0002156,
    "INCLINATION": 97.6968,
    "RA_OF_ASC_NODE": 292.3595,
    "ARG_OF_PERICENTER": 184.1579,
    "MEAN_ANOMALY": 175.9637,
    "EPHEMERIS_TYPE": 0,
    "CLASSIFICATION_TYPE": "U",
    "NORAD_CAT_ID": 60541,
    "ELEMENT_SET_NO": 999,
    "REV_AT_EPOCH": 10623,
    "BSTAR": 0.00078713,
    "MEAN_MOTION_DOT": 0.00016444,
    "MEAN_MOTION_DDOT": 0
  }
]
